[{"OBJECT_NAME":"STARLINK-5428","OBJECT_ID":"2022-175AU","EPOCH":"2026-03-09T07:13:37.041024","MEAN_MOTION":15.08841997,"ECCENTRICITY":0.00014685,"INCLINATION":53.2185,"RA_OF_ASC_NODE":35.6382,"ARG_OF_PERICENTER":95.1963,"MEAN_ANOMALY":264.9197,"EPHEMERIS_TYPE":0,"CLASSIFICATION_TYPE":"U","NORAD_CAT_ID":54800,"ELEMENT_SET_NO":999,"REV_AT_EPOCH":18000,"BSTAR":0.0001915204,"MEAN_MOTION_DOT":2.762e-5,"MEAN_MOTION_DDOT":0},{"OBJECT_NAME":"DMSP 5D-2 F13 DEB","OBJECT_ID":"1995-015BF","EPOCH":"2026-03-08T19:32:26.019456","MEAN_MOTION":15.08152744,"ECCENTRICITY":0.00224007,"INCLINATION":98.6145,"RA_OF_ASC_NODE":204.4302,"ARG_OF_PERICENTER":265.1662,"MEAN_ANOMALY":94.7005,"EPHEMERIS_TYPE":0,"CLASSIFICATION_TYPE":"U","NORAD_CAT_ID":40463,"ELEMENT_SET_NO":999,"REV_AT_EPOCH":57796,"BSTAR":0.0090845916,"MEAN_MOTION_DOT":0.00143794,"MEAN_MOTION_DDOT":0}]
